OBJECT_NAME,OBJECT_ID,EPOCH,MEAN_MOTION,ECCENTRICITY,INCLINATION,RA_OF_ASC_NODE,ARG_OF_PERICENTER,MEAN_ANOMALY,EPHEMERIS_TYPE,CLASSIFICATION_TYPE,NORAD_CAT_ID,ELEMENT_SET_NO,REV_AT_EPOCH,BSTAR,MEAN_MOTION_DOT,MEAN_MOTION_DDOT
EMISAT,2019-018A,2026-05-16T22:56:28.032000,14.43671398,.00175738,98.4669,195.9234,315.0121,44.9645,0,U,44078,999,37555,.53825437E-4,.139E-5,0
JILIN-1 GAOFEN 3A,2019-032C,2026-05-16T22:08:02.687712,15.31905066,.00034385,44.9732,168.9083,128.0035,232.1160,0,U,44312,999,38304,.24408568E-3,.7364E-4,0
PROX-1,2019-036A,2026-05-16T20:29:31.003584,14.89821208,.00067265,23.9964,323.4261,31.0822,329.0075,0,U,44339,999,36879,.10302672E-2,.10424E-3,0
NPSAT1,2019-036B,2026-05-16T22:00:59.240448,14.74267004,.00077231,23.9988,61.3622,215.2137,144.7849,0,U,44340,999,36787,.51367426E-3,.3721E-4,0
FORMOSAT 7-3,2019-036E,2026-05-16T22:06:36.419040,15.09546443,.00004106,23.9998,33.6870,269.8160,90.2297,0,U,44343,999,37851,.17960906E-3,.3302E-4,0
FORMOSAT 7-1,2019-036L,2026-05-16T15:22:01.391232,14.96367035,.00008576,23.9974,245.0527,142.1158,217.9403,0,U,44349,999,37992,.12009831E-3,.1695E-4,0
FORMOSAT 7-4,2019-036M,2026-05-16T19:06:17.637408,14.96361551,.00010489,23.9988,306.1064,168.3076,191.7449,0,U,44350,999,37936,.12756123E-3,.1782E-4,0
FORMOSAT 7-2,2019-036N,2026-05-16T22:50:32.599680,14.96358708,.00005996,23.9992,359.3693,164.7546,195.2973,0,U,44351,999,37890,.1252918E-3,.1755E-4,0
FORMOSAT 7-6,2019-036Q,2026-05-16T19:38:21.761952,14.96368245,.000145,23.9962,181.0868,94.4518,265.6148,0,U,44353,999,37711,.10321341E-3,.15E-4,0
FORMOSAT 7-5,2019-036V,2026-05-16T06:17:32.876448,14.96366909,.00005723,23.9975,123.5832,138.2665,221.7879,0,U,44358,999,37756,.11849189E-3,.1676E-4,0
METEOR-M2 2,2019-038A,2026-05-16T21:57:17.151840,14.24357459,.00023545,98.9131,123.7407,96.2335,263.9111,0,U,44387,999,35684,.77525958E-4,.133E-5,0
GLOBAL-4,2019-054E,2026-05-16T19:42:46.622880,15.61291525,.00038661,45.0077,56.9508,140.4934,219.6244,0,U,44499,999,37545,.50142899E-3,.43503E-3,0
ZY-1 02D,2019-059A,2026-05-16T23:32:43.293696,14.35449247,.00011351,98.3209,199.5677,154.4016,205.7226,0,U,44528,999,34986,.39817558E-4,.72E-6,0
TAURUS-1 (JINNIUZUO 1),2019-059C,2026-05-16T21:42:20.674944,14.71732816,.000929,98.6388,299.8051,57.1432,303.0666,0,U,44530,999,35404,.68472665E-3,.422E-4,0
ZHUHAI-1 03B,2019-060C,2026-05-16T20:55:11.718624,15.52269564,.00095678,97.5496,292.9987,77.3367,282.8955,0,U,44536,999,37146,.41195863E-3,.2501E-3,0
ZHUHAI-1 03C,2019-060D,2026-05-16T22:06:42.704640,15.97336120,.00054257,97.5432,305.8770,302.4240,57.6511,0,U,44537,999,37226,.10150829E-2,.443148E-2,.83389952E-4
ZHUHAI-1 03D,2019-060E,2026-05-16T21:19:47.073792,15.47897318,.00079831,97.5358,285.4136,64.2223,295.9849,0,U,44538,999,37123,.48003398E-3,.24976E-3,0
ZHUHAI-1 03E,2019-060F,2026-05-16T20:52:48.806976,15.39982562,.00071455,97.5573,285.7657,130.5089,229.6780,0,U,44539,999,37094,.37883357E-3,.15042E-3,0
GAOFEN-7,2019-072A,2026-05-16T23:00:42.295104,15.21341084,.00176968,97.2445,199.5956,141.2161,219.0350,0,U,44703,999,36289,.14361479E-3,.3162E-4,0
JILIN-1 GAOFEN 2A,2019-075A,2026-05-16T22:08:51.517536,15.38410707,.00066235,97.4970,220.0044,181.7389,178.3834,0,U,44777,999,36007,.32812815E-3,.12359E-3,0
NINGXIA-1 1,2019-076A,2026-05-16T21:35:01.953024,14.02035746,.00109797,45.0068,319.6714,6.8675,353.2308,0,U,44779,999,33346,.38204088E-4,-.71E-6,0
NINGXIA-1 5,2019-076E,2026-05-16T21:55:42.822912,14.02083560,.00109569,45.0065,318.9618,356.6798,3.3962,0,U,44783,999,33338,.46168882E-4,-.59E-6,0
KL-ALPHA A,2019-077A,2026-05-16T21:47:15.571968,13.56039151,.00106419,88.9266,225.9820,189.1999,170.8962,0,U,44785,999,32149,.27319232E-4,.31E-6,0
CARTOSAT-3,2019-081A,2026-05-16T22:30:44.525376,15.19215692,.00109972,97.4328,199.3027,258.9320,101.0678,0,U,44804,999,35872,.15993218E-3,.3303E-4,0
JILIN-1 GAOFEN 2B,2019-086A,2026-05-16T22:53:25.276992,15.20328807,.00156075,97.4893,209.1478,72.2834,288.0103,0,U,44836,999,35574,.2282075E-3,.4908E-4,0
TIANQIN 1 (CAS-6),2019-093A,2026-05-16T23:21:59.546304,14.95265655,.00120268,97.7801,221.0434,151.8206,208.3668,0,U,44879,999,34738,.15120792E-3,.1608E-4,0
ETRSS-1,2019-093B,2026-05-16T22:08:02.031072,14.95676394,.00122666,97.7824,221.4247,150.8465,209.3443,0,U,44880,999,34738,.22899581E-3,.2492E-4,0
