EMISAT                  
1 44078U 19018A   26136.95588000  .00000139  00000+0  53825-4 0  9994
2 44078  98.4669 195.9234 0017573 315.0121  44.9645 14.43671398375559
JILIN-1 GAOFEN 3A       
1 44312U 19032C   26136.92225333  .00007364  00000+0  24409-3 0  9997
2 44312  44.9732 168.9083 0003438 128.0035 232.1160 15.31905066383046
PROX-1                  
1 44339U 19036A   26136.85383106  .00010424  00000+0  10303-2 0  9993
2 44339  23.9964 323.4261 0006726  31.0822 329.0075 14.89821208368798
NPSAT1                  
1 44340U 19036B   26136.91735232  .00003721  00000+0  51367-3 0  9991
2 44340  23.9988  61.3622 0007723 215.2137 144.7849 14.74267004367879
FORMOSAT 7-3            
1 44343U 19036E   26136.92125485  .00003302  00000+0  17961-3 0  9995
2 44343  23.9998  33.6870 0000410 269.8160  90.2297 15.09546443378518
FORMOSAT 7-1            
1 44349U 19036L   26136.64029388  .00001695  00000+0  12010-3 0  9998
2 44349  23.9974 245.0527 0000857 142.1158 217.9403 14.96367035379927
FORMOSAT 7-4            
1 44350U 19036M   26136.79603747  .00001782  00000+0  12756-3 0  9997
2 44350  23.9988 306.1064 0001048 168.3076 191.7449 14.96361551379365
FORMOSAT 7-2            
1 44351U 19036N   26136.95176620  .00001755  00000+0  12529-3 0  9999
2 44351  23.9992 359.3693 0000599 164.7546 195.2973 14.96358708378901
FORMOSAT 7-6            
1 44353U 19036Q   26136.81830743  .00001500  00000+0  10321-3 0  9995
2 44353  23.9962 181.0868 0001450  94.4518 265.6148 14.96368245377114
FORMOSAT 7-5            
1 44358U 19036V   26136.26218607  .00001676  00000+0  11849-3 0  9998
2 44358  23.9975 123.5832 0000572 138.2665 221.7879 14.96366909377567
METEOR-M2 2             
1 44387U 19038A   26136.91478185  .00000133  00000+0  77526-4 0  9995
2 44387  98.9131 123.7407 0002354  96.2335 263.9111 14.24357459356848
GLOBAL-4                
1 44499U 19054E   26136.82137295  .00043503  00000+0  50143-3 0  9994
2 44499  45.0077  56.9508 0003866 140.4934 219.6244 15.61291525375455
ZY-1 02D                
1 44528U 19059A   26136.98105664  .00000072  00000+0  39818-4 0  9995
2 44528  98.3209 199.5677 0001135 154.4016 205.7226 14.35449247349868
TAURUS-1 (JINNIUZUO 1)  
1 44530U 19059C   26136.90440596  .00004220  00000+0  68473-3 0  9993
2 44530  98.6388 299.8051 0009290  57.1432 303.0666 14.71732816354046
ZHUHAI-1 03B            
1 44536U 19060C   26136.87166341  .00025010  00000+0  41196-3 0  9993
2 44536  97.5496 292.9987 0009567  77.3367 282.8955 15.52269564371465
ZHUHAI-1 03C            
1 44537U 19060D   26136.92132760  .00443148  83390-4  10151-2 0  9998
2 44537  97.5432 305.8770 0005425 302.4240  57.6511 15.97336120372268
ZHUHAI-1 03D            
1 44538U 19060E   26136.88873928  .00024976  00000+0  48003-3 0  9996
2 44538  97.5358 285.4136 0007983  64.2223 295.9849 15.47897318371233
ZHUHAI-1 03E            
1 44539U 19060F   26136.87000934  .00015042  00000+0  37883-3 0  9993
2 44539  97.5573 285.7657 0007145 130.5089 229.6780 15.39982562370943
GAOFEN-7                
1 44703U 19072A   26136.95882286  .00003162  00000+0  14361-3 0  9992
2 44703  97.2445 199.5956 0017696 141.2161 219.0350 15.21341084362897
JILIN-1 GAOFEN 2A       
1 44777U 19075A   26136.92281849  .00012359  00000+0  32813-3 0  9991
2 44777  97.4970 220.0044 0006623 181.7389 178.3834 15.38410707360079
NINGXIA-1 1             
1 44779U 19076A   26136.89932816 -.00000071  00000+0  38204-4 0  9997
2 44779  45.0068 319.6714 0010979   6.8675 353.2308 14.02035746333460
NINGXIA-1 5             
1 44783U 19076E   26136.91369008 -.00000059  00000+0  46169-4 0  9997
2 44783  45.0065 318.9618 0010956 356.6798   3.3962 14.02083560333381
KL-ALPHA A              
1 44785U 19077A   26136.90781912  .00000031  00000+0  27319-4 0  9996
2 44785  88.9266 225.9820 0010641 189.1999 170.8962 13.56039151321491
CARTOSAT-3              
1 44804U 19081A   26136.93801534  .00003303  00000+0  15993-3 0  9998
2 44804  97.4328 199.3027 0010997 258.9320 101.0678 15.19215692358720
JILIN-1 GAOFEN 2B       
1 44836U 19086A   26136.95376478  .00004908  00000+0  22821-3 0  9994
2 44836  97.4893 209.1478 0015607  72.2834 288.0103 15.20328807355745
TIANQIN 1 (CAS-6)       
1 44879U 19093A   26136.97360586  .00001608  00000+0  15121-3 0  9993
2 44879  97.7801 221.0434 0012026 151.8206 208.3668 14.95265655347382
ETRSS-1                 
1 44880U 19093B   26136.92224573  .00002492  00000+0  22900-3 0  9990
2 44880  97.7824 221.4247 0012266 150.8465 209.3443 14.95676394347385
